BEIDOU-2 G7 (C03)       
1 41586U 16037A   25014.63398888 -.00000356  00000+0  00000+0 0  9999
2 41586   1.8874  67.8966 0007716 343.5612  41.5422  1.00277404  1690
BEIDOU-3 M1 (C19)       
1 43001U 17069A   25014.43507752 -.00000040  00000+0  00000+0 0  9999
2 43001  56.2371  80.2351 0010519 298.3215  61.6333  1.86231188 48944
BEIDOU-3 M2 (C20)       
1 43002U 17069B   25014.37273659 -.00000040  00000+0  00000+0 0  9999
2 43002  56.2360  80.2737 0007756 319.5047  40.4982  1.86230919 48934
BEIDOU-3 M7 (C27)       
1 43107U 18003A   25014.11983219 -.00000097  00000+0  00000+0 0  9998
2 43107  54.7763 320.3494 0003412  54.1136 305.9170  1.86232339 47681
BEIDOU-3 M8 (C28)       
1 43108U 18003B   25014.06200816 -.00000097  00000+0  00000+0 0  9998
2 43108  54.7692 320.3359 0004525 278.5571  81.3905  1.86230826 47695
BEIDOU-3 M4 (C22)       
1 43207U 18018A   25014.50321795 -.00000040  00000+0  00000+0 0  9991
2 43207  56.1960  80.3147 0004817 346.8545  13.1939  1.86231118 47089
BEIDOU-3 M3 (C21)       
1 43208U 18018B   25014.56978190 -.00000040  00000+0  00000+0 0  9995
2 43208  56.1954  80.3167 0007996 308.3388  51.6506  1.86231290 47082
BEIDOU-3 M9 (C29)       
1 43245U 18029A   25014.25212109 -.00000094  00000+0  00000+0 0  9994
2 43245  54.6526 318.0315 0001689 300.2152  59.7705  1.86232563 46230
